NORAD_CAT_ID,OBJECT_NAME,OBJECT_TYPE,EPOCH,MEAN_MOTION,ECCENTRICITY,INCLINATION,RA_OF_ASC_NODE,ARG_OF_PERICENTER,MEAN_ANOMALY,BSTAR,MEAN_MOTION_DOT,MEAN_MOTION_DDOT,TLE_LINE0,TLE_LINE1,TLE_LINE2,SEMIMAJOR_AXIS,PERIOD,APOGEE,PERIGEE,DECAYED
51893.0,STARLINK-3579,PAYLOAD,2024-04-18 13:57:19,15.08825709,0.0001445,53.2174,217.1335,101.3428,258.7727,-0.00011583,-2.13e-05,0.0,0 STARLINK-3579,1 51893U 22022AT  24109.58147524 -.00002130  00000-0 -11583-3 0  9995,2 51893  53.2174 217.1335 0001445 101.3428 258.7727 15.08825709119122,6917.924,95.438,540.789,538.789,0.0
51893.0,STARLINK-3579,PAYLOAD,2024-04-19 12:12:43,15.08830572,0.0001308,53.2162,212.966,69.7501,290.3632,7.3454e-05,8.81e-06,0.0,0 STARLINK-3579,1 51893U 22022AT  24110.50883584  .00000881  00000-0  73454-4 0  9997,2 51893  53.2162 212.9660 0001308  69.7501 290.3632 15.08830572119266,6917.909,95.438,540.679,538.869,0.0
51893.0,STARLINK-3579,PAYLOAD,2024-04-20 12:03:29,15.08844718,0.0002399,53.2165,208.5032,21.7464,338.3629,0.00034644,5.23e-05,0.0,0 STARLINK-3579,1 51893U 22022AT  24111.50242829  .00005230  00000-0  34644-3 0  9999,2 51893  53.2165 208.5032 0002399  21.7464 338.3629 15.08844718119413,6917.866,95.437,541.391,538.071,0.0
51893.0,STARLINK-3579,PAYLOAD,2024-04-21 11:54:18,15.08825081,0.0001309,53.2168,204.0467,90.643,269.4712,-0.00012858,-2.333e-05,0.0,0 STARLINK-3579,1 51893U 22022AT  24112.49604418 -.00002333  00000-0 -12858-3 0  9990,2 51893  53.2168 204.0467 0001309  90.6430 269.4712 15.08825081119562,6917.926,95.438,540.697,538.885,0.0
51893.0,STARLINK-3579,PAYLOAD,2024-04-21 16:40:26,15.08863306,0.0001359,53.2171,203.1592,98.7229,261.3918,0.00046758,7.166e-05,0.0,0 STARLINK-3579,1 51893U 22022AT  24112.69475041  .00007166  00000-0  46758-3 0  9993,2 51893  53.2171 203.1592 0001359  98.7229 261.3918 15.08863306119599,6917.809,95.436,540.614,538.734,0.0
51893.0,STARLINK-3579,PAYLOAD,2024-04-22 10:09:41,15.08846845,0.000137,53.2158,199.8844,105.6938,254.4205,6.7667e-05,7.89e-06,0.0,0 STARLINK-3579,1 51893U 22022AT  24113.42339146  .00000789  00000-0  67667-4 0  9997,2 51893  53.2158 199.8844 0001370 105.6938 254.4205 15.08846845119707,6917.859,95.437,540.672,538.777,0.0
51893.0,STARLINK-3579,PAYLOAD,2024-04-22 13:20:27,15.0884828,0.0001349,53.2165,199.2901,96.6035,263.511,0.00011617,1.562e-05,0.0,0 STARLINK-3579,1 51893U 22022AT  24113.55587210  .00001562  00000-0  11617-3 0  9991,2 51893  53.2165 199.2901 0001349  96.6035 263.5110 15.08848280119729,6917.855,95.437,540.653,538.787,0.0
51893.0,STARLINK-3579,PAYLOAD,2024-04-23 13:11:14,15.08850596,0.0001687,53.2173,194.8342,75.9789,284.1391,-0.00010155,-1.904e-05,0.0,0 STARLINK-3579,1 51893U 22022AT  24114.54947280 -.00001904  00000-0 -10155-3 0  9996,2 51893  53.2173 194.8342 0001687  75.9789 284.1391 15.08850596119878,6917.848,95.437,540.88,538.546,0.0
51893.0,STARLINK-3579,PAYLOAD,2024-04-24 05:05:06,15.08840775,0.0001611,53.2175,191.8602,88.6565,271.4612,9.2364e-05,1.182e-05,0.0,0 STARLINK-3579,1 51893U 22022AT  24115.21187776  .00001182  00000-0  92364-4 0  9996,2 51893  53.2175 191.8602 0001611  88.6565 271.4612 15.08840775119970,6917.878,95.438,540.857,538.629,0.0
51893.0,STARLINK-3579,PAYLOAD,2024-04-24 11:26:39,15.08813321,0.0001271,53.2175,190.6691,110.0341,250.0788,-0.00035634,-5.95e-05,0.0,0 STARLINK-3579,1 51893U 22022AT  24115.47685021 -.00005950  00000-0 -35634-3 0  9995,2 51893  53.2175 190.6691 0001271 110.0341 250.0788 15.08813321120010,6917.962,95.439,540.706,538.948,0.0
51893.0,STARLINK-3579,PAYLOAD,2024-04-25 04:55:54,15.08835863,0.0001585,53.2169,187.4013,97.7035,262.4138,9.1738e-05,1.172e-05,0.0,0 STARLINK-3579,1 51893U 22022AT  24116.20548725  .00001172  00000-0  91738-4 0  9994,2 51893  53.2169 187.4013 0001585  97.7035 262.4138 15.08835863120127,6917.893,95.438,540.855,538.662,0.0
51893.0,STARLINK-3579,PAYLOAD,2024-04-25 11:17:26,15.08845356,0.0001726,53.2164,186.2161,89.9246,270.1944,0.0001814,2.601e-05,0.0,0 STARLINK-3579,1 51893U 22022AT  24116.47044337  .00002601  00000-0  18140-3 0  9996,2 51893  53.2164 186.2161 0001726  89.9246 270.1944 15.08845356120160,6917.864,95.437,540.923,538.535,0.0
51893.0,STARLINK-3579,PAYLOAD,2024-04-26 11:08:12,15.08833129,0.0001403,53.2153,181.7486,98.4703,261.6448,0.00035391,5.348e-05,0.0,0 STARLINK-3579,1 51893U 22022AT  24117.46403854  .00005348  00000-0  35391-3 0  9997,2 51893  53.2153 181.7486 0001403  98.4703 261.6448 15.08833129120319,6917.901,95.438,540.737,538.796,0.0
51893.0,STARLINK-3579,PAYLOAD,2024-04-27 10:58:59,15.08851934,0.0001637,53.2185,177.2939,105.3358,254.7816,5.5714e-05,5.99e-06,0.0,0 STARLINK-3579,1 51893U 22022AT  24118.45763065  .00000599  00000-0  55714-4 0  9995,2 51893  53.2185 177.2939 0001637 105.3358 254.7816 15.08851934120462,6917.844,95.437,540.841,538.576,0.0
51893.0,STARLINK-3579,PAYLOAD,2024-04-27 20:31:16,15.08867571,0.0001594,53.2194,175.5098,109.1756,250.9409,9.1171e-05,1.164e-05,0.0,0 STARLINK-3579,1 51893U 22022AT  24118.85505330  .00001164  00000-0  91171-4 0  9994,2 51893  53.2194 175.5098 0001594 109.1756 250.9409 15.08867571120522,6917.796,95.436,540.764,538.558,0.0
51893.0,STARLINK-3579,PAYLOAD,2024-04-28 02:52:50,15.0885283,0.0003017,53.2174,174.3184,86.7389,273.3948,7.5639e-06,-1.68e-06,0.0,0 STARLINK-3579,1 51893U 22022AT  24119.12002642 -.00000168  00000-0  75639-5 0  9999,2 51893  53.2174 174.3184 0003017  86.7389 273.3948 15.08852830120560,6917.841,95.437,541.793,537.619,0.0
51893.0,STARLINK-3579,PAYLOAD,2024-04-28 10:49:47,15.08817687,0.0001269,53.2163,172.8312,106.603,253.5102,-0.00040287,-6.69e-05,0.0,0 STARLINK-3579,1 51893U 22022AT  24119.45124207 -.00006690  00000-0 -40287-3 0  9993,2 51893  53.2163 172.8312 0001269 106.6030 253.5102 15.08817687120615,6917.949,95.439,540.691,538.936,0.0
51893.0,STARLINK-3579,PAYLOAD,2024-04-28 20:22:06,15.08822226,0.0001384,53.2181,171.0467,100.9189,259.1959,-0.00031769,-5.338e-05,0.0,0 STARLINK-3579,1 51893U 22022AT  24119.84868283 -.00005338  00000-0 -31769-3 0  9998,2 51893  53.2181 171.0467 0001384 100.9189 259.1959 15.08822226120670,6917.935,95.439,540.757,538.842,0.0
51893.0,STARLINK-3579,PAYLOAD,2024-04-29 10:40:34,15.08830564,0.0001142,53.2156,168.3696,94.4248,265.6874,2.0935e-06,-2.54e-06,0.0,0 STARLINK-3579,1 51893U 22022AT  24120.44484429 -.00000254  00000-0  20935-5 0  9998,2 51893  53.2156 168.3696 0001142  94.4248 265.6874 15.08830564120762,6917.909,95.438,540.564,538.984,0.0
51893.0,STARLINK-3579,PAYLOAD,2024-04-29 20:12:53,15.08835516,0.0001135,53.2152,166.585,93.7009,266.4113,0.00027045,4.018e-05,0.0,0 STARLINK-3579,1 51893U 22022AT  24120.84228636  .00004018  00000-0  27045-3 0  9996,2 51893  53.2152 166.5850 0001135  93.7009 266.4113 15.08835516120823,6917.894,95.438,540.544,538.974,0.0
51893.0,STARLINK-3579,PAYLOAD,2024-04-30 10:31:21,15.08856222,0.0001076,53.2147,163.9078,96.5041,263.6074,0.00074721,0.00011629,0.0,0 STARLINK-3579,1 51893U 22022AT  24121.43844441  .00011629  00000-0  74721-3 0  9999,2 51893  53.2147 163.9078 0001076  96.5041 263.6074 15.08856222120913,6917.831,95.437,540.44,538.951,0.0
51893.0,STARLINK-3579,PAYLOAD,2024-04-30 20:03:39,15.08865341,0.0001016,53.214,162.1224,95.2846,264.8263,0.00075208,0.0001171,0.0,0 STARLINK-3579,1 51893U 22022AT  24121.83587855  .00011710  00000-0  75208-3 0  9998,2 51893  53.2140 162.1224 0001016  95.2846 264.8263 15.08865341120974,6917.803,95.436,540.371,538.965,0.0
51893.0,STARLINK-3579,PAYLOAD,2024-05-01 02:25:12,15.08859525,0.0001186,53.2148,160.9344,88.103,272.0098,0.0004284,6.54e-05,0.0,0 STARLINK-3579,1 51893U 22022AT  24122.10083746  .00006540  00000-0  42840-3 0  9990,2 51893  53.2148 160.9344 0001186  88.1030 272.0098 15.08859525121015,6917.821,95.436,540.506,538.865,0.0
51893.0,STARLINK-3579,PAYLOAD,2024-05-01 08:46:44,15.08855751,0.0001154,53.2143,159.744,93.6215,266.4909,0.00024922,3.682e-05,0.0,0 STARLINK-3579,1 51893U 22022AT  24122.36579587  .00003682  00000-0  24922-3 0  9996,2 51893  53.2143 159.7440 0001154  93.6215 266.4909 15.08855751121053,6917.832,95.437,540.496,538.899,0.0
51893.0,STARLINK-3579,PAYLOAD,2024-05-01 19:54:26,15.08857852,0.0001142,53.2147,157.6622,93.1427,266.9695,0.00027817,4.144e-05,0.0,0 STARLINK-3579,1 51893U 22022AT  24122.82947176  .00004144  00000-0  27817-3 0  9990,2 51893  53.2147 157.6622 0001142  93.1427 266.9695 15.08857852121122,6917.826,95.436,540.481,538.901,0.0
51893.0,STARLINK-3579,PAYLOAD,2024-05-02 05:26:45,15.08850027,0.0001859,53.2148,155.8783,92.9595,267.1609,0.0001077,1.427e-05,0.0,0 STARLINK-3579,1 51893U 22022AT  24123.22691455  .00001427  00000-0  10770-3 0  9992,2 51893  53.2148 155.8783 0001859  92.9595 267.1609 15.08850027121180,6917.85,95.437,541.001,538.429,0.0
51893.0,STARLINK-3579,PAYLOAD,2024-05-02 11:48:18,15.08841843,0.0001375,53.2165,154.6891,96.7566,263.3582,-8.6516e-05,-1.665e-05,0.0,0 STARLINK-3579,1 51893U 22022AT  24123.49187809 -.00001665  00000-0 -86516-4 0  9992,2 51893  53.2165 154.6891 0001375  96.7566 263.3582 15.08841843121228,6917.875,95.437,540.691,538.789,0.0
51893.0,STARLINK-3579,PAYLOAD,2024-05-03 08:28:18,15.08843381,0.0001215,53.2154,150.8234,90.2247,269.8884,7.8503e-05,9.62e-06,0.0,0 STARLINK-3579,1 51893U 22022AT  24124.35299591  .00000962  00000-0  78503-4 0  9994,2 51893  53.2154 150.8234 0001215  90.2247 269.8884 15.08843381121352,6917.87,95.437,540.576,538.895,0.0
51893.0,STARLINK-3579,PAYLOAD,2024-05-04 05:08:20,15.08829373,0.0001135,53.2141,146.959,86.8707,273.2415,3.9314e-05,3.38e-06,0.0,0 STARLINK-3579,1 51893U 22022AT  24125.21412529  .00000338  00000-0  39314-4 0  9992,2 51893  53.2141 146.9590 0001135  86.8707 273.2415 15.08829373121480,6917.913,95.438,540.563,538.993,0.0
51893.0,STARLINK-3579,PAYLOAD,2024-05-05 11:20:40,15.08834348,0.0001114,53.2155,141.3083,96.9215,263.1904,4.8287e-05,4.81e-06,0.0,0 STARLINK-3579,1 51893U 22022AT  24126.47269134  .00000481  00000-0  48287-4 0  9991,2 51893  53.2155 141.3083 0001114  96.9215 263.1904 15.08834348121674,6917.898,95.438,540.533,538.992,0.0
